BEIDOU-2 IGSO-5         
1 37948U 11073A   26183.72937883 -.00000128  00000+0  00000+0 0  9990
2 37948  47.6496 271.3544 0114527 222.0502 141.5350  1.00270596 53296
LUCH-5A                 
1 37951U 11074B   26187.63408068 -.00000039  00000+0  00000+0 0  9998
2 37951   8.7999  73.5230 0002614  51.3862 194.9263  1.00272633 53249
BEIDOU-2 G5             
1 38091U 12008A   26188.15667462  .00000070  00000+0  00000+0 0  9999
2 38091   3.6203  69.5757 0007429 273.5139  57.1746  1.00268677 52563
BEIDOU-2 M3             
1 38250U 12018A   26186.98223560 -.00000061  00000+0  00000+0 0  9994
2 38250  55.7406 304.2424 0020688 272.8560  86.9284  1.86230201 96296
BEIDOU-2 M4             
1 38251U 12018B   26186.91456641 -.00000061  00000+0  00000+0 0  9996
2 38251  55.6406 303.4567 0011824 273.7127  86.1743  1.86229838 96292
SES-5                   
1 38652U 12036A   26188.14601455  .00000049  00000+0  00000+0 0  9998
2 38652   0.0479 314.3867 0001986 155.5606 232.7210  1.00271844 44653
BEIDOU-2 M6             
1 38775U 12050B   26187.16117804 -.00000040  00000+0  00000+0 0  9993
2 38775  56.5605  62.2672 0013167   0.2513 359.8149  1.86230942 93661
GSAT-10                 
1 38779U 12051B   26187.66432233 -.00000149  00000+0  00000+0 0  9999
2 38779   0.0420 240.1474 0007864 214.3085 152.3326  1.00269440 50296
NAVSTAR 67 (USA 239)    
1 38833U 12053A   26186.76314947  .00000067  00000+0  00000+0 0  9991
2 38833  53.5886 142.8384 0181408  66.0586 295.8053  2.00567790 99810
GSAT0103 (GALILEO-FM3)  
1 38857U 12055A   26186.07331266  .00000001  00000+0  00000+0 0  9994
2 38857  55.8163 101.0549 0004125 308.6335  51.3483  1.70473389 85314
BEIDOU-2 G6             
1 38953U 12059A   26188.09043057 -.00000162  00000+0  00000+0 0  9996
2 38953   4.4686  73.3130 0009150 330.3631 357.9238  1.00269175 50103
LUCH-5B                 
1 38977U 12061A   26187.92789431 -.00000128  00000+0  00000+0 0  9991
2 38977  10.5235  49.6822 0003423 138.9528  54.0691  1.00271941 49802
COSMOS 2485 [GLONASS-M] 
1 39155U 13019A   26187.14965138 -.00000015  00000+0  00000+0 0  9993
2 39155  65.4297  72.9683 0022918 232.1119 127.7452  2.13103473102683
NAVSTAR 68 (USA 242)    
1 39166U 13023A   26188.12634727 -.00000010  00000+0  00000+0 0  9991
2 39166  54.4888 268.1608 0141401  51.1024 310.2139  2.00563366 96284
IRNSS-1A                
1 39199U 13034A   26186.73027412  .00000068  00000+0  00000+0 0  9993
2 39199  35.7606  63.6043 0017858 181.6646 356.4955  1.00280420 47558
NAVSTAR 69 (USA 248)    
1 39533U 14008A   26187.62957601  .00000076  00000+0  00000+0 0  9997
2 39533  53.6570 148.5269 0084187 231.4917 127.7311  2.00561029 90074
ASTRA 5B                
1 39617U 14011B   26188.16572670  .00000152  00000+0  00000+0 0  9998
2 39617   0.0686 307.9755 0001931 160.4725 259.8469  1.00270689 44861
COSMOS 2492 [GLONASS-M] 
1 39620U 14012A   26187.10850905 -.00000045  00000+0  00000+0 0  9998
2 39620  65.2858 313.2935 0010327 320.0256  39.9108  2.13103524 95648
IRNSS-1B                
1 39635U 14017A   26186.73010079  .00000137  00000+0  00000+0 0  9998
2 39635  28.8929 240.0829 0022969 195.5386 165.9835  1.00272765 44988
LUCH-5V                 
1 39727U 14023A   26188.07961659 -.00000255  00000+0  00000+0 0  9997
2 39727   5.1790  69.5465 0002712  64.1093 274.7524  1.00268009 44557
NAVSTAR 70 (USA 251)    
1 39741U 14026A   26186.90822377 -.00000068  00000+0  00000+0 0  9991
2 39741  56.4884 330.7891 0038111 326.0557  33.7048  2.00559646 88912
COSMOS 2500 [GLONASS-M] 
1 40001U 14032A   26188.21653122 -.00000048  00000+0  00000+0 0  9993
2 40001  65.2207 313.0011 0007971 188.6383 171.3606  2.13106140 93889
NAVSTAR 71 (USA 256)    
1 40105U 14045A   26187.00001942 -.00000013  00000+0  00000+0 0  9997
2 40105  55.3649  87.7155 0034103 118.3151 242.0701  2.00559674 86455
GSAT0201 (GALILEO 5)    
1 40128U 14050A   26186.20344625 -.00000032  00000+0  00000+0 0  9998
2 40128  48.8557 272.6971 1677026 180.0981 179.9258  1.85520009 78651
GSAT0202 (GALILEO 6)    
1 40129U 14050B   26186.99790341 -.00000031  00000+0  00000+0 0  9994
2 40129  48.8715 271.7502 1678484 180.8497 178.8849  1.85520580 80838
IRNSS-1C                
1 40269U 14061A   26187.80503634 -.00000150  00000+0  00000+0 0  9991
2 40269   6.5665  88.5574 0022129   4.5724 204.4639  1.00273671 42883
NAVSTAR 72 (USA 258)    
1 40294U 14068A   26187.86550649 -.00000053  00000+0  00000+0 0  9992
2 40294  57.0010  30.1972 0067431  71.2772 289.5066  2.00577397 85608
COSMOS 2501 [GLONASS-K] 
1 40315U 14075A   26187.54030231  .00000114  00000+0  00000+0 0  9996
2 40315  63.6180 189.7021 0022679 212.6524 147.2323  2.13101455 90266
NAVSTAR 73 (USA 260)    
1 40534U 15013A   26188.00668179  .00000101  00000+0  00000+0 0  9998
2 40534  53.1668 203.3578 0110070  40.3021 320.5512  2.00550184 82221
GSAT0203 (GALILEO 7)    
1 40544U 15017A   26186.98345984 -.00000072  00000+0  00000+0 0  9992
2 40544  56.7803 341.0841 0002460 259.0454 100.9264  1.70476214 69526
GSAT0204 (GALILEO 8)    
1 40545U 15017B   26185.47954683 -.00000073  00000+0  00000+0 0  9999
2 40545  56.7872 341.1436 0002451 236.0411 123.9323  1.70475782 32544
